STARLINK-31505          
1 59237U 24049G   26068.41606508  .00001744  00000+0  72801-4 0  9994
2 59237  43.0013 145.1422 0001486 273.5446  86.5236 15.27615839112368
FLOCK 4G-26             
1 62633U 25009AA  26068.80489479  .00011283  00000+0  42469-3 0  9999
2 62633  97.4054 151.3913 0001988 299.1273  60.9767 15.27281631 63733
